GLOBALSTAR M057 [-]     
1 25943U 99058A   23290.64390996 -.00000044  00000+0  44267-3 0  9990
2 25943  51.9975 275.1607 0002324 196.3437 163.7338 12.24775382 92433
GLOBALSTAR M059 [-]     
1 25944U 99058B   23290.58974297 -.00000090  00000+0 -47896-4 0  9990
2 25944  52.0033  53.5830 0000785 133.3806 240.0430 11.99954111500983
GLOBALSTAR M056 [-]     
1 25945U 99058C   23290.36595642 -.00000039  00000+0  56220-3 0  9992
2 25945  51.9964  71.7904 0001601  81.1866 294.4345 12.04770188 89249
GLOBALSTAR M031 [-]     
1 25946U 99058D   23290.47935022 -.00000019  00000+0  72095-3 0  9991
2 25946  51.9992   0.2219 0001646  39.4925 333.3477 12.15998306 90492
GLOBALSTAR M039 [-]     
1 25961U 99062A   23290.41460668 -.00000049  00000+0  30609-3 0  9994
2 25961  51.9858 322.8309 0003123  80.7577 279.3643 12.62272089103334
GLOBALSTAR M029 [-]     
1 25963U 99062C   23290.42121880 -.00000070  00000+0  20020-3 0  9997
2 25963  51.9805 302.6001 0002735   7.2412 140.1107 11.99868972 96043
